{
  "type": "FeatureCollection",
  "features": [
    {
      "type": "Feature",
      "properties": {
        "norad_id": 34070,
        "name": "COSMOS 2251 DEB",
        "group": "cosmos-2251-debris",
        "lat": 1.783156737664609,
        "lon": -47.970866919678876,
        "alt_km": 637.7417589976094,
        "timestamp": "2025-12-04T10:51:50.499616+00:00",
        "meta_object_name": "COSMOS 2251 DEB",
        "meta_object_id": "1993-036KH",
        "meta_epoch": "2025-12-04T04:21:14.014080",
        "meta_mean_motion": 14.76522442,
        "meta_eccentricity": 0.0019188,
        "meta_inclination": 73.9996,
        "meta_ra_of_asc_node": 133.0733,
        "meta_arg_of_pericenter": 247.2404,
        "meta_mean_anomaly": 289.7274,
        "meta_ephemeris_type": 0,
        "meta_classification_type": "U",
        "meta_norad_cat_id": 34070,
        "meta_element_set_no": 999,
        "meta_rev_at_epoch": 88484,
        "meta_bstar": 0.0058265,
        "meta_mean_motion_dot": 0.00040953,
        "meta_mean_motion_ddot": 0,
        "tle_line1": "1 34070U 93036KH  25338.18141220  .00040953  00000+0  58265-2 0  9993",
        "tle_line2": "2 34070  73.9996 133.0733 0019188 247.2404 289.7274 14.76522442884847"
      },
      "geometry": {
        "type": "Point",
        "coordinates": [
          -47.970866919678876,
          1.783156737664609
        ]
      }
    },
    {
      "type": "Feature",
      "properties": {
        "norad_id": 34114,
        "name": "COSMOS 2251 DEB",
        "group": "cosmos-2251-debris",
        "lat": -72.54732764620381,
        "lon": -5.842062172392995,
        "alt_km": 738.2401285705555,
        "timestamp": "2025-12-04T10:51:50.499627+00:00",
        "meta_object_name": "COSMOS 2251 DEB",
        "meta_object_id": "1993-036KK",
        "meta_epoch": "2025-12-03T07:32:34.249056",
        "meta_mean_motion": 14.56147398,
        "meta_eccentricity": 0.0047253,
        "meta_inclination": 74.0603,
        "meta_ra_of_asc_node": 61.6863,
        "meta_arg_of_pericenter": 60.0546,
        "meta_mean_anomaly": 12.3343,
        "meta_ephemeris_type": 0,
        "meta_classification_type": "U",
        "meta_norad_cat_id": 34114,
        "meta_element_set_no": 999,
        "meta_rev_at_epoch": 87664,
        "meta_bstar": 0.0024793,
        "meta_mean_motion_dot": 0.000111,
        "meta_mean_motion_ddot": 0,
        "tle_line1": "1 34114U 93036KK  25337.31428529  .00011100  00000+0  24793-2 0  9997",
        "tle_line2": "2 34114  74.0603  61.6863 0047253  60.0546  12.3343 14.56147398876642"
      },
      "geometry": {
        "type": "Point",
        "coordinates": [
          -5.842062172392995,
          -72.54732764620381
        ]
      }
    },
    {
      "type": "Feature",
      "properties": {
        "norad_id": 34115,
        "name": "COSMOS 2251 DEB",
        "group": "cosmos-2251-debris",
        "lat": 57.86651755652414,
        "lon": -74.55474031847392,
        "alt_km": 607.368469763629,
        "timestamp": "2025-12-04T10:51:50.499637+00:00",
        "meta_object_name": "COSMOS 2251 DEB",
        "meta_object_id": "1993-036KL",
        "meta_epoch": "2025-12-04T04:05:39.870240",
        "meta_mean_motion": 14.79269175,
        "meta_eccentricity": 0.0028259,
        "meta_inclination": 74.0077,
        "meta_ra_of_asc_node": 258.8334,
        "meta_arg_of_pericenter": 84.9445,
        "meta_mean_anomaly": 275.4955,
        "meta_ephemeris_type": 0,
        "meta_classification_type": "U",
        "meta_norad_cat_id": 34115,
        "meta_element_set_no": 999,
        "meta_rev_at_epoch": 89285,
        "meta_bstar": 0.0024436,
        "meta_mean_motion_dot": 0.00018309,
        "meta_mean_motion_ddot": 0,
        "tle_line1": "1 34115U 93036KL  25338.17060035  .00018309  00000+0  24436-2 0  9999",
        "tle_line2": "2 34115  74.0077 258.8334 0028259  84.9445 275.4955 14.79269175892854"
      },
      "geometry": {
        "type": "Point",
        "coordinates": [
          -74.55474031847392,
          57.86651755652414
        ]
      }
    },
    {
      "type": "Feature",
      "properties": {
        "norad_id": 34116,
        "name": "COSMOS 2251 DEB",
        "group": "cosmos-2251-debris",
        "lat": 73.63552759403986,
        "lon": -58.635342362509455,
        "alt_km": 717.4835221919047,
        "timestamp": "2025-12-04T10:51:50.499647+00:00",
        "meta_object_name": "COSMOS 2251 DEB",
        "meta_object_id": "1993-036KM",
        "meta_epoch": "2025-12-04T01:12:20.672064",
        "meta_mean_motion": 14.52898279,
        "meta_eccentricity": 0.0012264,
        "meta_inclination": 74.0407,
        "meta_ra_of_asc_node": 199.1653,
        "meta_arg_of_pericenter": 275.332,
        "meta_mean_anomaly": 234.2622,
        "meta_ephemeris_type": 0,
        "meta_classification_type": "U",
        "meta_norad_cat_id": 34116,
        "meta_element_set_no": 999,
        "meta_rev_at_epoch": 88360,
        "meta_bstar": 0.0014604,
        "meta_mean_motion_dot": 5.996e-05,
        "meta_mean_motion_ddot": 0,
        "tle_line1": "1 34116U 93036KM  25338.05023926  .00005996  00000+0  14604-2 0  9999",
        "tle_line2": "2 34116  74.0407 199.1653 0012264 275.3320 234.2622 14.52898279883601"
      },
      "geometry": {
        "type": "Point",
        "coordinates": [
          -58.635342362509455,
          73.63552759403986
        ]
      }
    },
    {
      "type": "Feature",
      "properties": {
        "norad_id": 34117,
        "name": "COSMOS 2251 DEB",
        "group": "cosmos-2251-debris",
        "lat": -50.60770312331797,
        "lon": -21.25473527442406,
        "alt_km": 790.7801743523423,
        "timestamp": "2025-12-04T10:51:50.499658+00:00",
        "meta_object_name": "COSMOS 2251 DEB",
        "meta_object_id": "1993-036KN",
        "meta_epoch": "2025-12-04T02:46:32.627424",
        "meta_mean_motion": 14.39958209,
        "meta_eccentricity": 0.0054384,
        "meta_inclination": 74.0403,
        "meta_ra_of_asc_node": 359.7622,
        "meta_arg_of_pericenter": 78.7604,
        "meta_mean_anomaly": 281.9656,
        "meta_ephemeris_type": 0,
        "meta_classification_type": "U",
        "meta_norad_cat_id": 34117,
        "meta_element_set_no": 999,
        "meta_rev_at_epoch": 87999,
        "meta_bstar": 0.0012216,
        "meta_mean_motion_dot": 3.888e-05,
        "meta_mean_motion_ddot": 0,
        "tle_line1": "1 34117U 93036KN  25338.11565541  .00003888  00000+0  12216-2 0  9996",
        "tle_line2": "2 34117  74.0403 359.7622 0054384  78.7604 281.9656 14.39958209879995"
      },
      "geometry": {
        "type": "Point",
        "coordinates": [
          -21.25473527442406,
          -50.60770312331797
        ]
      }
    },
    {
      "type": "Feature",
      "properties": {
        "norad_id": 34118,
        "name": "COSMOS 2251 DEB",
        "group": "cosmos-2251-debris",
        "lat": -36.190360164627705,
        "lon": 98.22374876642276,
        "alt_km": 613.6626227002162,
        "timestamp": "2025-12-04T10:51:50.499669+00:00",
        "meta_object_name": "COSMOS 2251 DEB",
        "meta_object_id": "1993-036KP",
        "meta_epoch": "2025-12-04T01:56:33.347328",
        "meta_mean_motion": 14.9336347,
        "meta_eccentricity": 0.0060015,
        "meta_inclination": 73.9532,
        "meta_ra_of_asc_node": 266.8185,
        "meta_arg_of_pericenter": 99.25,
        "meta_mean_anomaly": 280.3382,
        "meta_ephemeris_type": 0,
        "meta_classification_type": "U",
        "meta_norad_cat_id": 34118,
        "meta_element_set_no": 999,
        "meta_rev_at_epoch": 89047,
        "meta_bstar": 0.0045685,
        "meta_mean_motion_dot": 0.00049963,
        "meta_mean_motion_ddot": 0,
        "tle_line1": "1 34118U 93036KP  25338.08094152  .00049963  00000+0  45685-2 0  9998",
        "tle_line2": "2 34118  73.9532 266.8185 0060015  99.2500 280.3382 14.93363470890475"
      },
      "geometry": {
        "type": "Point",
        "coordinates": [
          98.22374876642276,
          -36.190360164627705
        ]
      }
    },
    {
      "type": "Feature",
      "properties": {
        "norad_id": 34120,
        "name": "COSMOS 2251 DEB",
        "group": "cosmos-2251-debris",
        "lat": -36.541072868622074,
        "lon": 62.85758758472589,
        "alt_km": 1026.5931202909615,
        "timestamp": "2025-12-04T10:51:50.499679+00:00",
        "meta_object_name": "COSMOS 2251 DEB",
        "meta_object_id": "1993-036KR",
        "meta_epoch": "2025-12-04T03:34:11.432352",
        "meta_mean_motion": 13.98668339,
        "meta_eccentricity": 0.0181591,
        "meta_inclination": 73.9918,
        "meta_ra_of_asc_node": 231.1005,
        "meta_arg_of_pericenter": 60.7248,
        "meta_mean_anomaly": 66.9399,
        "meta_ephemeris_type": 0,
        "meta_classification_type": "U",
        "meta_norad_cat_id": 34120,
        "meta_element_set_no": 999,
        "meta_rev_at_epoch": 85860,
        "meta_bstar": 0.00063906,
        "meta_mean_motion_dot": 1.034e-05,
        "meta_mean_motion_ddot": 0,
        "tle_line1": "1 34120U 93036KR  25338.14874343  .00001034  00000+0  63906-3 0  9990",
        "tle_line2": "2 34120  73.9918 231.1005 0181591  60.7248  66.9399 13.98668339858608"
      },
      "geometry": {
        "type": "Point",
        "coordinates": [
          62.85758758472589,
          -36.541072868622074
        ]
      }
    }
  ]
}